$$SOE
2460154.500000000, A.D. 2023-Jul-29 00:00:00.0000, 1.159202711088393E+07, 3.937223734192873E+08, -1.034086810972172E+07,
2460161.500000000, A.D. 2023-Aug-05 00:00:00.0000, 8.887859835887864E+05, 3.937260077694560E+08, -1.103932039929977E+07,
2460168.500000000, A.D. 2023-Aug-12 00:00:00.0000, -9.815124508721564E+06, 3.934168521652453E+08, -1.172900192199896E+07,
2460175.500000000, A.D. 2023-Aug-19 00:00:00.0000, -2.051119575878944E+07, 3.927947516164651E+08, -1.240935261456065E+07,
2460182.500000000, A.D. 2023-Aug-26 00:00:00.0000, -3.119090069287990E+07, 3.918597506047498E+08, -1.307981690013954E+07,
2460189.500000000, A.D. 2023-Sep-02 00:00:00.0000, -4.184569654253085E+07, 3.906120943707174E+08, -1.373984390167151E+07,
2460196.500000000, A.D. 2023-Sep-09 00:00:00.0000, -5.246702766846716E+07, 3.890522301690108E+08, -1.438888767306089E+07,
2460203.500000000, A.D. 2023-Sep-16 00:00:00.0000, -6.304632827762673E+07, 3.871808084309723E+08, -1.502640746880345E+07,
2460210.500000000, A.D. 2023-Sep-23 00:00:00.0000, -7.357502462683399E+07, 3.849986841193047E+08, -1.565186806720670E+07,
2460217.500000000, A.D. 2023-Sep-30 00:00:00.0000, -8.404453706310590E+07, 3.825069194643204E+08, -1.626474001939204E+07,
2460224.500000000, A.D. 2023-Oct-07 00:00:00.0000, -9.444628426236965E+07, 3.797067875379272E+08, -1.686449965344615E+07,
2460231.500000000, A.D. 2023-Oct-14 00:00:00.0000, -1.047716886338446E+08, 3.765997733441501E+08, -1.745062919970411E+07,
2460238.500000000, A.D. 2023-Oct-21 00:00:00.0000, -1.150121796750664E+08, 3.731875740224329E+08, -1.802261720203920E+07,
2460245.500000000, A.D. 2023-Oct-28 00:00:00.0000, -1.251591967136138E+08, 3.694721004250116E+08, -1.857995890100959E+07,
2460252.500000000, A.D. 2023-Nov-04 00:00:00.0000, -1.352041922926526E+08, 3.654554792950791E+08, -1.912215653801766E+07,
2460259.500000000, A.D. 2023-Nov-11 00:00:00.0000, -1.451386360298753E+08, 3.611400554391564E+08, -1.964871964603385E+07,
2460266.500000000, A.D. 2023-Nov-18 00:00:00.0000, -1.549540187372214E+08, 3.565283938209541E+08, -2.015916535225828E+07,
2460273.500000000, A.D. 2023-Nov-25 00:00:00.0000, -1.646418567355925E+08, 3.516232815882450E+08, -2.065301869711234E+07,
2460280.500000000, A.D. 2023-Dec-02 00:00:00.0000, -1.741936963456527E+08, 3.464277300086474E+08, -2.112981297230837E+07,
2460287.500000000, A.D. 2023-Dec-09 00:00:00.0000, -1.836011184893434E+08, 3.409449762436266E+08, -2.158909008948372E+07,
2460294.500000000, A.D. 2023-Dec-16 00:00:00.0000, -1.928557431284218E+08, 3.351784849647697E+08, -2.203040100507770E+07,
2460301.500000000, A.D. 2023-Dec-23 00:00:00.0000, -2.019492332043940E+08, 3.291319504937578E+08, -2.245330617830995E+07,
2460308.500000000, A.D. 2023-Dec-30 00:00:00.0000, -2.108732994312013E+08, 3.228093005105278E+08, -2.285737585522361E+07,
2460315.500000000, A.D. 2024-Jan-06 00:00:00.0000, -2.196197077198184E+08, 3.162146989634036E+08, -2.324219021075773E+07,
2460322.500000000, A.D. 2024-Jan-13 00:00:00.0000, -2.281802860638208E+08, 3.093525463600320E+08, -2.360733978731465E+07,
2460329.500000000, A.D. 2024-Jan-20 00:00:00.0000, -2.365469296698311E+08, 3.022274805056889E+08, -2.395242608944532E+07,
2460336.500000000, A.D. 2024-Jan-27 00:00:00.0000, -2.447116063707297E+08, 2.948443783289090E+08, -2.427706209614122E+07,
2460343.500000000, A.D. 2024-Feb-03 00:00:00.0000, -2.526663627543504E+08, 2.872083578311908E+08, -2.458087272916740E+07,
2460350.500000000, A.D. 2024-Feb-10 00:00:00.0000, -2.604033307343504E+08, 2.793247798505689E+08, -2.486349532611172E+07,
2460357.500000000, A.D. 2024-Feb-17 00:00:00.0000, -2.679147344302619E+08, 2.711992496267068E+08, -2.512458012970844E+07,
2460364.500000000, A.D. 2024-Feb-24 00:00:00.0000, -2.751928973275735E+08, 2.628376181623324E+08, -2.536379079527587E+07,
2460371.500000000, A.D. 2024-Mar-02 00:00:00.0000, -2.822302496954105E+08, 2.542459833292435E+08, -2.558080492160787E+07,
2460378.500000000, A.D. 2024-Mar-09 00:00:00.0000, -2.890193361289122E+08, 2.454306906372991E+08, -2.577531462327990E+07,
2460385.500000000, A.D. 2024-Mar-16 00:00:00.0000, -2.955528228250092E+08, 2.363983338445243E+08, -2.594702716446804E+07,
2460392.500000000, A.D. 2024-Mar-23 00:00:00.0000, -3.018235046976694E+08, 2.271557564969111E+08, -2.609566555392594E+07,
2460399.500000000, A.D. 2024-Mar-30 00:00:00.0000, -3.078243145765325E+08, 2.177100543504171E+08, -2.622096889778924E+07,
2460406.500000000, A.D. 2024-Apr-06 00:00:00.0000, -3.135483342329745E+08, 2.080685752882392E+08, -2.632269280894127E+07,
2460413.500000000, A.D. 2024-Apr-13 00:00:00.0000, -3.189888036749207E+08, 1.982389175454133E+08, -2.640061012850332E+07,
2460420.500000000, A.D. 2024-Apr-20 00:00:00.0000, -3.241391296573585E+08, 1.882289288873652E+08, -2.645451165141101E+07,
2460427.500000000, A.D. 2024-Apr-27 00:00:00.0000, -3.289928949245516E+08, 1.780467061551279E+08, -2.648420676245074E+07,
2460434.500000000, A.D. 2024-May-04 00:00:00.0000, -3.335438680904970E+08, 1.677005944496432E+08, -2.648952404754873E+07,
2460441.500000000, A.D. 2024-May-11 00:00:00.0000, -3.377860139099140E+08, 1.571991858267184E+08, -2.647031190889958E+07,
2460448.500000000, A.D. 2024-May-18 00:00:00.0000, -3.417135038469552E+08, 1.465513174963215E+08, -2.642643918788714E+07,
2460455.500000000, A.D. 2024-May-25 00:00:00.0000, -3.453207269045839E+08, 1.357660694909166E+08, -2.635779579678803E+07,
2460462.500000000, A.D. 2024-Jun-01 00:00:00.0000, -3.486023006404195E+08, 1.248527617171701E+08, -2.626429336744914E+07,
2460469.500000000, A.D. 2024-Jun-08 00:00:00.0000, -3.515530821059180E+08, 1.138209503397092E+08, -2.614586593921956E+07,
2460476.500000000, A.D. 2024-Jun-15 00:00:00.0000, -3.541681782898276E+08, 1.026804240133350E+08, -2.600247067579348E+07,
2460483.500000000, A.D. 2024-Jun-22 00:00:00.0000, -3.564429570494617E+08, 9.144120110942243E+07, -2.583408842019771E+07,
2460490.500000000, A.D. 2024-Jun-29 00:00:00.0000, -3.583730606302834E+08, 8.011352608671907E+07, -2.564072404013688E+07,
2460497.500000000, A.D. 2024-Jul-06 00:00:00.0000, -3.599544191059742E+08, 6.870786251017165E+07, -2.542240700640648E+07,
2460504.500000000, A.D. 2024-Jul-13 00:00:00.0000, -3.611832617577524E+08, 5.723488551726568E+07, -2.517919214898140E+07,
2460511.500000000, A.D. 2024-Jul-20 00:00:00.0000, -3.620561283436221E+08, 4.570547485216483E+07, -2.491116031122940E+07,
2460518.500000000, A.D. 2024-Jul-27 00:00:00.0000, -3.625698808820899E+08, 3.413070748243564E+07, -2.461841891840715E+07,
2460525.500000000, A.D. 2024-Aug-03 00:00:00.0000, -3.627217156421393E+08, 2.252184940389857E+07, -2.430110251370462E+07,
2460532.500000000, A.D. 2024-Aug-10 00:00:00.0000, -3.625091751297882E+08, 1.089034661199819E+07, -2.395937327349038E+07,
2460539.500000000, A.D. 2024-Aug-17 00:00:00.0000, -3.619301599732628E+08, -7.521847566718832E+05, -2.359342149939601E+07,
2460546.500000000, A.D. 2024-Aug-24 00:00:00.0000, -3.609829406259634E+08, -1.239396915493811E+07, -2.320346608680217E+07,
2460553.500000000, A.D. 2024-Aug-31 00:00:00.0000, -3.596661687207676E+08, -2.402308330908541E+07, -2.278975498174486E+07,
2460560.500000000, A.D. 2024-Sep-07 00:00:00.0000, -3.579788876623279E+08, -3.562746874540408E+07, -2.235256564713184E+07,
2460567.500000000, A.D. 2024-Sep-14 00:00:00.0000, -3.559205423232986E+08, -4.719494417157005E+07, -2.189220546264294E+07,
2460574.500000000, A.D. 2024-Sep-21 00:00:00.0000, -3.534909898199674E+08, -5.871321730286326E+07, -2.140901183585411E+07,
2460581.500000000, A.D. 2024-Sep-28 00:00:00.0000, -3.506905117990234E+08, -7.016989936023116E+07, -2.090335224067539E+07,
2460588.500000000, A.D. 2024-Oct-05 00:00:00.0000, -3.475198245081638E+08, -8.155252223243448E+07, -2.037562451606851E+07,
2460595.500000000, A.D. 2024-Oct-12 00:00:00.0000, -3.439800869462263E+08, -9.284855530996823E+07, -1.982625714361122E+07,
2460602.500000000, A.D. 2024-Oct-19 00:00:00.0000, -3.400729087738580E+08, -1.040454222477828E+08, -1.925570936046014E+07,
2460609.500000000, A.D. 2024-Oct-26 00:00:00.0000, -3.358003579501026E+08, -1.151305184428471E+08, -1.866447116651633E+07,
2460616.500000000, A.D. 2024-Nov-02 00:00:00.0000, -3.311649677742109E+08, -1.260912293532636E+08, -1.805306325847248E+07,
2460623.500000000, A.D. 2024-Nov-09 00:00:00.0000, -3.261697431724469E+08, -1.369149496088292E+08, -1.742203689461619E+07,
2460630.500000000, A.D. 2024-Nov-16 00:00:00.0000, -3.208181661392545E+08, -1.475891028772182E+08, -1.677197368930963E+07,
2460637.500000000, A.D. 2024-Nov-23 00:00:00.0000, -3.151142002215794E+08, -1.581011624946799E+08, -1.610348534230669E+07,
2460644.500000000, A.D. 2024-Nov-30 00:00:00.0000, -3.090622937754627E+08, -1.684386728571641E+08, -1.541721332258932E+07,
2460651.500000000, A.D. 2024-Dec-07 00:00:00.0000, -3.026673815149705E+08, -1.785892710983067E+08, -1.471382850818469E+07,
2460658.500000000, A.D. 2024-Dec-14 00:00:00.0000, -2.959348849834284E+08, -1.885407077709518E+08, -1.399403061639268E+07,
2460665.500000000, A.D. 2024-Dec-21 00:00:00.0000, -2.888707142093707E+08, -1.982808677086333E+08, -1.325854731131604E+07,
2460672.500000000, A.D. 2024-Dec-28 00:00:00.0000, -2.814812685250500E+08, -2.077977939667320E+08, -1.250813341111241E+07,
2460679.500000000, A.D. 2025-Jan-04 00:00:00.0000, -2.737734339078572E+08, -2.170797123932732E+08, -1.174357023823664E+07,
2460686.500000000, A.D. 2025-Jan-11 00:00:00.0000, -2.657545786264447E+08, -2.261150550869692E+08, -1.096566480896731E+07,
2460693.500000000, A.D. 2025-Jan-18 00:00:00.0000, -2.574325480712604E+08, -2.348924835728567E+08, -1.017524885252272E+07,
2460700.500000000, A.D. 2025-Jan-25 00:00:00.0000, -2.488156584940463E+08, -2.434009120794986E+08, -9.373177721251339E+06,
2460707.500000000, A.D. 2025-Feb-01 00:00:00.0000, -2.399126894438233E+08, -2.516295308560120E+08, -8.560329213142559E+06,
2460714.500000000, A.D. 2025-Feb-08 00:00:00.0000, -2.307328748276737E+08, -2.595678294139588E+08, -7.737602312268108E+06,
$$EOE